stk.v.4.3 

BEGIN Ephemeris 
 
NumberOfEphemerisPoints		146 
ScenarioEpoch	    3 Sep 2020 19:37: 6.392658055 
InterpolationMethod		Lagrange 
InterpolationOrder		5 
CentralBody				Earth 
CoordinateSystem			TEME 
CoordinateSystemEpoch	  3 Sep 2020 19:37: 6.392658055 
DistanceUnit			Kilometers 
 
EphemerisTimePosVel 
 
       0.00000000    -407.45653411    7146.84849236       0.03558598 -0.468008232 -0.035725486  7.449127710
 END Ephemeris 
